RADUGA 28 [-]           
1 21821U 91087A   17345.11715998 -.00000036  00000-0  00000-0 0  9990
2 21821  15.0703   7.5998 0000071 333.5877 208.6941  1.00183932 95139
